IXPE                    
1 49954U 21121A   24120.91668981  .00005689  00000+0  40619-3 0  9995
2 49954   0.2304  31.2774 0009541 284.2218 101.3556 14.97550261  5659
